ONEWEB-0427             
1 50499U 21132AG  25109.35292023  .00000094  00000+0  20565-3 0  9992
2 50499  87.9118  59.6778 0002130  87.0959 273.0416 13.18685701165756
ONEWEB-0429             
1 50500U 21132AH  25109.79552482 -.00000062  00000+0 -19041-3 0  9995
2 50500  87.9126  59.6146 0001873  78.2210 281.9132 13.18685513165789
ONEWEB-0430             
1 50501U 21132AJ  25109.78446883  .00000089  00000+0  19318-3 0  9996
2 50501  87.9120  59.6112 0001647  82.3521 277.7798 13.18686795165826
ONEWEB-0432             
1 50502U 21132AK  25109.36082639  .00000101  00000+0  22373-3 0  9996
2 50502  87.9119  59.6850 0002058 109.2056 250.9298 13.18686263165720
ONEWEB-0440             
1 50503U 21132AL  25109.34818017  .00000112  00000+0  25133-3 0  9991
2 50503  87.9124  59.6852 0002174  73.7548 286.3823 13.18686536165718
ONEWEB-0450             
1 50504U 21132AM  25109.41785157 -.00000092  00000+0 -26664-3 0  9997
2 50504  87.9122  59.7005 0001761  68.8214 291.3106 13.18684960165757
ONEWEB-0410             
1 51622U 22012A   25109.94908292  .00000127  00000+0  29397-3 0  9995
2 51622  87.9018  90.1270 0003265  98.8353 261.3148 13.17648875157965
ONEWEB-0411             
1 51623U 22012B   25109.45795695 -.00000038  00000+0 -14438-3 0  9996
2 51623  87.8799 120.7453 0001451 101.3161 258.8130 13.10375938153795
